{
  "type": "FeatureCollection",
  "features": [
    {
      "type": "Feature",
      "properties": {
        "norad_id": 66833,
        "name": "STARLINK-35858",
        "group": "last-30-days",
        "lat": 58.24021977958954,
        "lon": -24.125249580418227,
        "alt_km": 351.26722361844895,
        "timestamp": "2025-12-15T04:01:19.181403+00:00",
        "meta_object_name": "STARLINK-35858",
        "meta_object_id": "2025-280N",
        "meta_epoch": "2025-12-14T06:00:02.999808",
        "meta_mean_motion": 15.74440089,
        "meta_eccentricity": 0.0003496,
        "meta_inclination": 69.9946,
        "meta_ra_of_asc_node": 194.518,
        "meta_arg_of_pericenter": 270.988,
        "meta_mean_anomaly": 50.7365,
        "meta_ephemeris_type": 0,
        "meta_classification_type": "U",
        "meta_norad_cat_id": 66833,
        "meta_element_set_no": 999,
        "meta_rev_at_epoch": 314,
        "meta_bstar": -0.013428229,
        "meta_mean_motion_dot": -0.01725648,
        "meta_mean_motion_ddot": 0,
        "tle_line1": "1 66833U 25280N   25348.25003472 -.01725648  00000+0 -13428-1 0  9991",
        "tle_line2": "2 66833  69.9946 194.5180 0003496 270.9880  50.7365 15.74440089  3141"
      },
      "geometry": {
        "type": "Point",
        "coordinates": [
          -24.125249580418227,
          58.24021977958954
        ]
      }
    },
    {
      "type": "Feature",
      "properties": {
        "norad_id": 66834,
        "name": "STARLINK-35840",
        "group": "last-30-days",
        "lat": 56.768995129012545,
        "lon": -21.863086013075662,
        "alt_km": 351.3751203173606,
        "timestamp": "2025-12-15T04:01:19.181415+00:00",
        "meta_object_name": "STARLINK-35840",
        "meta_object_id": "2025-280P",
        "meta_epoch": "2025-12-14T06:00:02.999808",
        "meta_mean_motion": 15.74448892,
        "meta_eccentricity": 0.00034822,
        "meta_inclination": 69.9941,
        "meta_ra_of_asc_node": 194.515,
        "meta_arg_of_pericenter": 268.3471,
        "meta_mean_anomaly": 55.2882,
        "meta_ephemeris_type": 0,
        "meta_classification_type": "U",
        "meta_norad_cat_id": 66834,
        "meta_element_set_no": 999,
        "meta_rev_at_epoch": 314,
        "meta_bstar": -0.013502331,
        "meta_mean_motion_dot": -0.0173462,
        "meta_mean_motion_ddot": 0,
        "tle_line1": "1 66834U 25280P   25348.25003472 -.01734620  00000+0 -13502-1 0  9995",
        "tle_line2": "2 66834  69.9941 194.5150 0003482 268.3471  55.2882 15.74448892  3140"
      },
      "geometry": {
        "type": "Point",
        "coordinates": [
          -21.863086013075662,
          56.768995129012545
        ]
      }
    },
    {
      "type": "Feature",
      "properties": {
        "norad_id": 66835,
        "name": "STARLINK-35890",
        "group": "last-30-days",
        "lat": 55.26317120892074,
        "lon": -19.776702274508978,
        "alt_km": 351.7274443861079,
        "timestamp": "2025-12-15T04:01:19.181427+00:00",
        "meta_object_name": "STARLINK-35890",
        "meta_object_id": "2025-280Q",
        "meta_epoch": "2025-12-14T06:00:02.999808",
        "meta_mean_motion": 15.74415005,
        "meta_eccentricity": 0.0003717,
        "meta_inclination": 69.994,
        "meta_ra_of_asc_node": 194.5127,
        "meta_arg_of_pericenter": 270.3886,
        "meta_mean_anomaly": 55.2025,
        "meta_ephemeris_type": 0,
        "meta_classification_type": "U",
        "meta_norad_cat_id": 66835,
        "meta_element_set_no": 999,
        "meta_rev_at_epoch": 314,
        "meta_bstar": -0.013372648,
        "meta_mean_motion_dot": -0.01717894,
        "meta_mean_motion_ddot": 0,
        "tle_line1": "1 66835U 25280Q   25348.25003472 -.01717894  00000+0 -13373-1 0  9996",
        "tle_line2": "2 66835  69.9940 194.5127 0003717 270.3886  55.2025 15.74415005  3147"
      },
      "geometry": {
        "type": "Point",
        "coordinates": [
          -19.776702274508978,
          55.26317120892074
        ]
      }
    },
    {
      "type": "Feature",
      "properties": {
        "norad_id": 66836,
        "name": "STARLINK-35838",
        "group": "last-30-days",
        "lat": 53.832633720398775,
        "lon": -17.97584995179084,
        "alt_km": 352.28971102332343,
        "timestamp": "2025-12-15T04:01:19.181439+00:00",
        "meta_object_name": "STARLINK-35838",
        "meta_object_id": "2025-280R",
        "meta_epoch": "2025-12-14T06:00:02.999808",
        "meta_mean_motion": 15.74393083,
        "meta_eccentricity": 0.00038254,
        "meta_inclination": 69.9936,
        "meta_ra_of_asc_node": 194.5097,
        "meta_arg_of_pericenter": 273.9059,
        "meta_mean_anomaly": 53.6515,
        "meta_ephemeris_type": 0,
        "meta_classification_type": "U",
        "meta_norad_cat_id": 66836,
        "meta_element_set_no": 999,
        "meta_rev_at_epoch": 314,
        "meta_bstar": -0.013700469,
        "meta_mean_motion_dot": -0.01753603,
        "meta_mean_motion_ddot": 0,
        "tle_line1": "1 66836U 25280R   25348.25003472 -.01753603  00000+0 -13700-1 0  9999",
        "tle_line2": "2 66836  69.9936 194.5097 0003825 273.9059  53.6515 15.74393083  3147"
      },
      "geometry": {
        "type": "Point",
        "coordinates": [
          -17.97584995179084,
          53.832633720398775
        ]
      }
    },
    {
      "type": "Feature",
      "properties": {
        "norad_id": 66837,
        "name": "STARLINK-35729",
        "group": "last-30-days",
        "lat": 52.18423716853097,
        "lon": -16.081298903985783,
        "alt_km": 352.1452089285658,
        "timestamp": "2025-12-15T04:01:19.181449+00:00",
        "meta_object_name": "STARLINK-35729",
        "meta_object_id": "2025-280S",
        "meta_epoch": "2025-12-14T06:00:02.999808",
        "meta_mean_motion": 15.74332384,
        "meta_eccentricity": 0.00037124,
        "meta_inclination": 69.9937,
        "meta_ra_of_asc_node": 194.5074,
        "meta_arg_of_pericenter": 271.7203,
        "meta_mean_anomaly": 57.8038,
        "meta_ephemeris_type": 0,
        "meta_classification_type": "U",
        "meta_norad_cat_id": 66837,
        "meta_element_set_no": 999,
        "meta_rev_at_epoch": 314,
        "meta_bstar": -0.013140931,
        "meta_mean_motion_dot": -0.0168616,
        "meta_mean_motion_ddot": 0,
        "tle_line1": "1 66837U 25280S   25348.25003472 -.01686160  00000+0 -13141-1 0  9992",
        "tle_line2": "2 66837  69.9937 194.5074 0003712 271.7203  57.8038 15.74332384  3149"
      },
      "geometry": {
        "type": "Point",
        "coordinates": [
          -16.081298903985783,
          52.18423716853097
        ]
      }
    },
    {
      "type": "Feature",
      "properties": {
        "norad_id": 66838,
        "name": "STARLINK-35886",
        "group": "last-30-days",
        "lat": 48.96394391990509,
        "lon": -12.834428991584373,
        "alt_km": 352.4637957531713,
        "timestamp": "2025-12-15T04:01:19.181459+00:00",
        "meta_object_name": "STARLINK-35886",
        "meta_object_id": "2025-280T",
        "meta_epoch": "2025-12-14T06:00:02.999808",
        "meta_mean_motion": 15.74289701,
        "meta_eccentricity": 0.00036466,
        "meta_inclination": 69.9933,
        "meta_ra_of_asc_node": 194.5026,
        "meta_arg_of_pericenter": 271.7546,
        "meta_mean_anomaly": 61.6488,
        "meta_ephemeris_type": 0,
        "meta_classification_type": "U",
        "meta_norad_cat_id": 66838,
        "meta_element_set_no": 999,
        "meta_rev_at_epoch": 314,
        "meta_bstar": -0.012961294,
        "meta_mean_motion_dot": -0.01662909,
        "meta_mean_motion_ddot": 0,
        "tle_line1": "1 66838U 25280T   25348.25003472 -.01662909  00000+0 -12961-1 0  9997",
        "tle_line2": "2 66838  69.9933 194.5026 0003646 271.7546  61.6488 15.74289701  3145"
      },
      "geometry": {
        "type": "Point",
        "coordinates": [
          -12.834428991584373,
          48.96394391990509
        ]
      }
    },
    {
      "type": "Feature",
      "properties": {
        "norad_id": 66839,
        "name": "STARLINK-35717",
        "group": "last-30-days",
        "lat": 50.62556247373595,
        "lon": -14.442903262630132,
        "alt_km": 352.45530801861787,
        "timestamp": "2025-12-15T04:01:19.181469+00:00",
        "meta_object_name": "STARLINK-35717",
        "meta_object_id": "2025-280U",
        "meta_epoch": "2025-12-14T06:00:02.999808",
        "meta_mean_motion": 15.74339325,
        "meta_eccentricity": 0.00038291,
        "meta_inclination": 69.9936,
        "meta_ra_of_asc_node": 194.5047,
        "meta_arg_of_pericenter": 270.3102,
        "meta_mean_anomaly": 61.1332,
        "meta_ephemeris_type": 0,
        "meta_classification_type": "U",
        "meta_norad_cat_id": 66839,
        "meta_element_set_no": 999,
        "meta_rev_at_epoch": 314,
        "meta_bstar": -0.013331519,
        "meta_mean_motion_dot": -0.01708349,
        "meta_mean_motion_ddot": 0,
        "tle_line1": "1 66839U 25280U   25348.25003472 -.01708349  00000+0 -13332-1 0  9990",
        "tle_line2": "2 66839  69.9936 194.5047 0003829 270.3102  61.1332 15.74339325  3149"
      },
      "geometry": {
        "type": "Point",
        "coordinates": [
          -14.442903262630132,
          50.62556247373595
        ]
      }
    }
  ]
}